KAZEOSAT 2              
1 40010U 14033A   26176.17853436  .00000849  00000+0  10423-3 0  9998
2 40010  97.5409  15.3681 0007227 299.4466  60.6028 14.85478266650142
HODOYOSHI-4             
1 40011U 14033B   26176.17008105  .00000288  00000+0  36820-4 0  9991
2 40011  97.5458   0.6074 0022120 280.5892  79.2834 14.88140418649993
DEIMOS-2                
1 40013U 14033D   26176.15471024  .00001324  00000+0  13012-3 0  9994
2 40013  97.5830  50.3636 0001400  55.8834 304.2519 14.93747547638915
HODOYOSHI-3             
1 40015U 14033F   26176.20125818  .00001011  00000+0  12248-3 0  9992
2 40015  97.6424 338.9194 0032011 330.4879  29.4528 14.85403545648818
SPOT 7                  
1 40053U 14034A   26176.19477880  .00000162  00000+0  42341-4 0  9996
2 40053  98.0628 238.4801 0001336  95.6368 264.4986 14.60963602638309
SKYSAT-B                
1 40072U 14037D   26175.11845173  .00001038  00000+0  11973-3 0  9994
2 40072  98.3840 134.4786 0004211 251.7206 108.3550 14.88042402646990
WORLDVIEW-3 (WV-3)      
1 40115U 14048A   26176.18559416  .00000804  00000+0  10042-3 0  9990
2 40115  97.8564 250.9080 0000340  18.5039 341.6188 14.85033764643093
GAOFEN-2                
1 40118U 14049A   26176.21688370  .00000833  00000+0  11467-3 0  9994
2 40118  98.0108 240.4165 0006675 196.8904 163.2086 14.80907099640424
YAOGAN-21               
1 40143U 14053A   26176.16031828  .00006387  00000+0  24720-3 0  9997
2 40143  97.1478 216.0535 0009785  70.9235 289.3063 15.26476795656175
YAOGAN-22               
1 40275U 14063A   26176.17104921 -.00000046  00000+0  23477-5 0  9997
2 40275 100.7733 327.5771 0006523 167.6038 192.5235 13.15531130560865
ASNARO                  
1 40298U 14070A   26176.19347743  .00006347  00000+0  30162-3 0  9999
2 40298  97.3455 252.0909 0006359 140.9579 219.2116 15.19537463645228
YAOGAN-24               
1 40310U 14072A   26176.21583663  .00000684  00000+0  10643-3 0  9992
2 40310  98.1495 313.6224 0012697 235.0379 124.9639 14.76231515624901
CBERS 4                 
1 40336U 14079A   26176.19233449 -.00000010  00000+0  11236-4 0  9992
2 40336  98.3531 232.7728 0001602  56.1781 303.9558 14.35510614605100
YAOGAN-26               
1 40362U 14088A   26176.15183566  .00028804  00000+0  55811-3 0  9997
2 40362  97.0642 176.1755 0005157  48.2770 311.8921 15.47648861638937
SMAP                    
1 40376U 15003A   26176.14828554  .00000404  00000+0  87318-4 0  9996
2 40376  98.1276 183.1300 0001406  98.7331 261.4030 14.63372909608782
KOMPSAT-3A              
1 40536U 15014A   26176.22570993  .00029935  00000+0  42604-3 0  9994
2 40536  97.6884 168.1769 0057161 145.7704 214.7255 15.54353242623065
SENTINEL-2A             
1 40697U 15028A   26176.18672589  .00000029  00000+0  27657-4 0  9991
2 40697  98.5682 250.9250 0001142  92.3754 267.7559 14.30817132574879
GAOFEN-8                
1 40701U 15030A   26176.17800784  .00008183  00000+0  16833-3 0  9991
2 40701  97.6909  10.0286 0009386 158.4258 201.7388 15.46205106612682
CARBONITE 1 (CBNT-1)    
1 40718U 15032D   26176.14104502  .00001343  00000+0  16881-3 0  9997
2 40718  97.6515 353.8745 0012886 269.1868  90.7870 14.83607787590528
YAOGAN-27               
1 40878U 15040A   26176.23880928  .00000580  00000+0  16374-2 0  9994
2 40878 100.1155 162.2721 0007892 190.8509 169.2435 13.16072450518723
GAOFEN-9 01             
1 40894U 15047A   26176.15988007  .00000924  00000+0  11949-3 0  9993
2 40894  97.6272 211.4923 0028784 112.8373 247.5886 14.82897634581372
YAOGAN-28               
1 41026U 15064A   26176.18399183  .00007750  00000+0  29009-3 0  9994
2 41026  97.3077 314.2833 0011326 156.0426 204.1342 15.27512987591906
YAOGAN-29               
1 41038U 15069A   26176.20649860 -.00000274  00000+0 -27000-4 0  9991
2 41038  98.0030 204.8521 0002221  41.6167 318.5215 14.83089091571812
KENT RIDGE 1            
1 41167U 15077B   26176.15258916  .00003915  00000+0  12934-3 0  9997
2 41167  14.9783 206.7483 0008200 350.9350   9.0824 15.23174129582315
GAOFEN-4                
1 41194U 15083A   26175.33395250 -.00000327  00000+0  00000+0 0  9998
2 41194   0.3770  83.8803 0004088 115.5435 298.9943  1.00271849 38605
JASON-3                 
1 41240U 16002A   26174.99291659 -.00000053  00000+0  37355-4 0  9995
2 41240  66.0412 111.5269 0008436 272.4502  87.5550 12.87628250488124
SENTINEL-3A             
1 41335U 16011A   26176.14124164  .00000091  00000+0  55713-4 0  9994
2 41335  98.6246 243.4106 0001430  97.5185 262.6158 14.26734698539193
ZIYUAN 3-02 (ZY 3-02)   
1 41556U 16033A   26176.21457167  .00005997  00000+0  27104-3 0  9995
2 41556  97.3837 251.8346 0012422 259.8581 100.1253 15.21248159559209
CARTOSAT-2C             
1 41599U 16040A   26176.16196733  .00004833  00000+0  23225-3 0  9991
2 41599  97.4488 236.0299 0010429 107.1773 253.0605 15.19247945554926
SKYSAT-C1               
1 41601U 16040C   26176.03214708  .00009889  00000+0  28038-3 0  9997
2 41601  96.9566 207.3269 0002752  42.5631 317.5827 15.36420055559071
LAPAN-A3                
1 41603U 16040E   26176.15392157  .00003749  00000+0  11926-3 0  9994
2 41603  97.1489 172.0377 0009873 358.2361   1.8845 15.33150900556038
