OBJECT_NAME,OBJECT_ID,EPOCH,MEAN_MOTION,ECCENTRICITY,INCLINATION,RA_OF_ASC_NODE,ARG_OF_PERICENTER,MEAN_ANOMALY,EPHEMERIS_TYPE,CLASSIFICATION_TYPE,NORAD_CAT_ID,ELEMENT_SET_NO,REV_AT_EPOCH,BSTAR,MEAN_MOTION_DOT,MEAN_MOTION_DDOT
KAZEOSAT 2,2014-033A,2026-06-25T04:17:05.368704,14.85478266,.0007227,97.5409,15.3681,299.4466,60.6028,0,U,40010,999,65014,.10423E-3,.849E-5,0
HODOYOSHI-4,2014-033B,2026-06-25T04:04:55.002720,14.88140418,.002212,97.5458,0.6074,280.5892,79.2834,0,U,40011,999,64999,.3682E-4,.288E-5,0
DEIMOS-2,2014-033D,2026-06-25T03:42:46.964736,14.93747547,.00014,97.5830,50.3636,55.8834,304.2519,0,U,40013,999,63891,.13012E-3,.1324E-4,0
HODOYOSHI-3,2014-033F,2026-06-25T04:49:48.706752,14.85403545,.0032011,97.6424,338.9194,330.4879,29.4528,0,U,40015,999,64881,.12248E-3,.1011E-4,0
SPOT 7,2014-034A,2026-06-25T04:40:28.888320,14.60963602,.0001336,98.0628,238.4801,95.6368,264.4986,0,U,40053,999,63830,.42341E-4,.162E-5,0
SKYSAT-B,2014-037D,2026-06-24T02:50:34.229472,14.88042402,.00042116,98.3840,134.4786,251.7206,108.3550,0,U,40072,999,64699,.11973485E-3,.1038E-4,0
WORLDVIEW-3 (WV-3),2014-048A,2026-06-25T04:27:15.335424,14.85033764,.000034,97.8564,250.9080,18.5039,341.6188,0,U,40115,999,64309,.10042E-3,.804E-5,0
GAOFEN-2,2014-049A,2026-06-25T05:12:18.751680,14.80907099,.0006675,98.0108,240.4165,196.8904,163.2086,0,U,40118,999,64042,.11467E-3,.833E-5,0
YAOGAN-21,2014-053A,2026-06-25T03:50:51.499392,15.26476795,.0009785,97.1478,216.0535,70.9235,289.3063,0,U,40143,999,65617,.2472E-3,.6387E-4,0
YAOGAN-22,2014-063A,2026-06-25T04:06:18.651744,13.15531130,.0006523,100.7733,327.5771,167.6038,192.5235,0,U,40275,999,56086,.23477E-5,-.46E-6,0
ASNARO,2014-070A,2026-06-25T04:38:36.449952,15.19537463,.0006359,97.3455,252.0909,140.9579,219.2116,0,U,40298,999,64522,.30162E-3,.6347E-4,0
YAOGAN-24,2014-072A,2026-06-25T05:10:48.284832,14.76231515,.0012697,98.1495,313.6224,235.0379,124.9639,0,U,40310,999,62490,.10643E-3,.684E-5,0
CBERS 4,2014-079A,2026-06-25T04:36:57.699936,14.35510614,.0001602,98.3531,232.7728,56.1781,303.9558,0,U,40336,999,60510,.11236E-4,-.1E-6,0
YAOGAN-26,2014-088A,2026-06-25T03:38:38.601024,15.47648861,.0005157,97.0642,176.1755,48.2770,311.8921,0,U,40362,999,63893,.55811E-3,.28804E-3,0
SMAP,2015-003A,2026-06-25T03:33:31.870656,14.63372909,.0001406,98.1276,183.1300,98.7331,261.4030,0,U,40376,999,60878,.87318E-4,.404E-5,0
KOMPSAT-3A,2015-014A,2026-06-25T05:25:01.337952,15.54353242,.0057161,97.6884,168.1769,145.7704,214.7255,0,U,40536,999,62306,.42604E-3,.29935E-3,0
SENTINEL-2A,2015-028A,2026-06-25T04:28:53.116896,14.30817132,.0001142,98.5682,250.9250,92.3754,267.7559,0,U,40697,999,57487,.27657E-4,.29E-6,0
GAOFEN-8,2015-030A,2026-06-25T04:16:19.877376,15.46205106,.0009386,97.6909,10.0286,158.4258,201.7388,0,U,40701,999,61268,.16833E-3,.8183E-4,0
CARBONITE 1 (CBNT-1),2015-032D,2026-06-25T03:23:06.289728,14.83607787,.0012886,97.6515,353.8745,269.1868,90.7870,0,U,40718,999,59052,.16881E-3,.1343E-4,0
YAOGAN-27,2015-040A,2026-06-25T05:43:53.121792,13.16072450,.0007892,100.1155,162.2721,190.8509,169.2435,0,U,40878,999,51872,.16374E-2,.58E-5,0
GAOFEN-9 01,2015-047A,2026-06-25T03:50:13.638048,14.82897634,.0028784,97.6272,211.4923,112.8373,247.5886,0,U,40894,999,58137,.11949E-3,.924E-5,0
YAOGAN-28,2015-064A,2026-06-25T04:24:56.894112,15.27512987,.0011326,97.3077,314.2833,156.0426,204.1342,0,U,41026,999,59190,.29009E-3,.775E-4,0
YAOGAN-29,2015-069A,2026-06-25T04:57:21.479040,14.83089091,.0002221,98.0030,204.8521,41.6167,318.5215,0,U,41038,999,57181,-.27E-4,-.274E-5,0
KENT RIDGE 1,2015-077B,2026-06-25T03:39:43.703424,15.23174129,.00082,14.9783,206.7483,350.9350,9.0824,0,U,41167,999,58231,.12934E-3,.3915E-4,0
GAOFEN-4,2015-083A,2026-06-24T08:00:53.496000,1.00271849,.00040883,0.3770,83.8803,115.5435,298.9943,0,U,41194,999,3860,0,-.327E-5,0
JASON-3,2016-002A,2026-06-23T23:49:47.993376,12.87628250,.00084367,66.0412,111.5269,272.4502,87.5550,0,U,41240,999,48812,.37354673E-4,-.53E-6,0
SENTINEL-3A,2016-011A,2026-06-25T03:23:23.277696,14.26734698,.000143,98.6246,243.4106,97.5185,262.6158,0,U,41335,999,53919,.55713E-4,.91E-6,0
ZIYUAN 3-02 (ZY 3-02),2016-033A,2026-06-25T05:08:58.992288,15.21248159,.0012422,97.3837,251.8346,259.8581,100.1253,0,U,41556,999,55920,.27104E-3,.5997E-4,0
CARTOSAT-2C,2016-040A,2026-06-25T03:53:13.977312,15.19247945,.0010429,97.4488,236.0299,107.1773,253.0605,0,U,41599,999,55492,.23225E-3,.4833E-4,0
SKYSAT-C1,2016-040C,2026-06-25T00:46:17.507712,15.36420055,.0002752,96.9566,207.3269,42.5631,317.5827,0,U,41601,999,55907,.28038E-3,.9889E-4,0
LAPAN-A3,2016-040E,2026-06-25T03:41:38.823648,15.33150900,.0009873,97.1489,172.0377,358.2361,1.8845,0,U,41603,999,55603,.11926E-3,.3749E-4,0
